*******************************************************************************
Ephemeris / WWW_USER Mon Aug  9 15:55:54 2021 Pasadena, USA      / Horizons    
*******************************************************************************
Target body name: Moon (301)                      {source: DE441}
Center body name: Earth (399)                     {source: DE441}
Center-site name: (user defined site below)
*******************************************************************************
Start time      : A.D. 2021-Aug-09 00:00:00.0000 UT      
Stop  time      : A.D. 2022-Sep-08 00:00:00.0000 UT      
Step-size       : 1 minutes
*******************************************************************************
Target pole/equ : IAU_MOON                        {East-longitude positive}
Target radii    : 1737.4 x 1737.4 x 1737.4 km     {Equator, meridian, pole}    
Center geodetic : 274.236400,38.2464000,0.0000000 {E-lon(deg),Lat(deg),Alt(km)}
Center cylindric: 274.236400,5015.54462,3926.9599 {E-lon(deg),Dxy(km),Dz(km)}
Center pole/equ : High-precision EOP model        {East-longitude positive}
Center radii    : 6378.1 x 6378.1 x 6356.8 km     {Equator, meridian, pole}    
Target primary  : Earth
Vis. interferer : MOON (R_eq= 1737.400) km        {source: DE441}
Rel. light bend : Sun, EARTH                      {source: DE441}
Rel. lght bnd GM: 1.3271E+11, 3.9860E+05 km^3/s^2                              
Atmos refraction: NO (AIRLESS)
RA format       : DEG
Time format     : BOTH
RTS-only print  : GEO      
RTS elevation   : 0. degrees
EOP file        : eop.210809.p211031                                           
EOP coverage    : DATA-BASED 1962-JAN-20 TO 2021-AUG-09. PREDICTS-> 2021-OCT-30
Units conversion: 1 au= 149597870.700 km, c= 299792.458 km/s, 1 day= 86400.0 s 
******************************************************************************************************************************************
 Date__(UT)__HR:MN:SS Date_________JDUT     R.A.___(ICRF)___DEC R.A._(a-appar)_DEC. Azi_(a-appr)_Elev L_Ap_Sid_Time     Illu%       TDB-UT
******************************************************************************************************************************************
$$SOE
 2022-May-15 10:08:00 2459714.922222222 Cs  220.86444 -15.90976 221.17547 -16.00515 250.2158  -0.9193 19.9570011375  99.09802    69.185283
 2022-May-16 00:34:00 2459715.523611111 *r  231.11616 -19.15336 231.43781 -19.23279 114.2116  -0.6803 10.4298520802  99.98701    69.185272
 2022-May-16 05:39:00 2459715.735416667  t  233.45934 -20.40702 233.78462 -20.48244 179.0377  31.2654 15.5271033915  99.98162    69.185268
 2022-May-16 10:45:00 2459715.947916667 *s  235.83052 -21.21086 236.15854 -21.28210 243.2979  -0.9354 20.6410670605  99.90851    69.185264
 2022-May-17 01:51:00 2459716.577083333 Nr  247.20902 -23.84015 247.54777 -23.88955 120.2741  -0.8414 11.7824107919  98.61922    69.185252
 2022-May-17 06:41:00 2459716.778472222  t  249.59909 -24.77184 249.94101 -24.81640 179.4845  26.9354 16.6289778602  98.14506    69.185248
 2022-May-17 11:30:00 2459716.979166667 *s  251.99642 -25.19691 252.34013 -25.23656 237.9526  -0.8961 21.4588326652  97.64305    69.185244
 2022-May-18 03:08:00 2459717.630555556  r  264.30603 -26.80482 264.65633 -26.81810 124.3751  -0.7197 13.1349706014  94.07746    69.185232
 2022-May-18 07:47:00 2459717.824305556  t  266.70112 -27.34854 267.05309 -27.35661 179.9146  24.3969 17.7977024997  93.22743    69.185228
 2022-May-18 12:26:00 2459718.018055555 *s  269.10393 -27.37188 269.45594 -27.37473 235.1098  -0.9855 22.4604344065  92.35718    69.185224
 2022-May-19 04:17:00 2459718.678472222  r  281.75885 -27.67203 282.10973 -27.64735 125.4844  -0.7575 14.3538324053  86.76686    69.185211
 2022-May-19 08:54:00 2459718.870833333 At  284.12784 -27.81632 284.47844 -27.78662 180.2601  23.9665 18.9831396870  85.61834    69.185207
 2022-May-19 13:31:00 2459719.063194444 *s  286.49092 -27.44339 286.83964 -27.40877 235.0218  -0.9423 23.6124469505  84.42734    69.185203
 2022-May-20 05:15:00 2459719.718750000  r  298.76480 -26.42846 299.10497 -26.36917 123.6557  -0.8287 15.3888585149  77.35748    69.185190
 2022-May-20 09:59:00 2459719.915972222 Ct  301.07613 -26.19065 301.41440 -26.12703 180.6103  25.6240 20.1351517521  75.96033    69.185186
 2022-May-20 14:43:00 2459720.113194444 *s  303.37178 -25.45183 303.70688 -25.38406 237.8272  -0.9776  0.8814449505  74.47989    69.185182
 2022-May-21 06:03:00 2459720.752083333  r  314.71415 -23.37882 315.03715 -23.29198 119.6006  -0.6958 16.2567606548  66.61206    69.185170
 2022-May-21 10:59:00 2459720.957638889 *t  316.93681 -22.79651 317.25718 -22.70637 180.8408  29.0426 21.2036012606  65.01733    69.185165
 2022-May-21 15:56:00 2459721.163888889 *s  319.14860 -21.74992 319.46550 -21.65666 242.7612  -0.8913  2.1671541165  63.29908    69.185161
 2022-May-22 06:41:00 2459721.778472222  r  329.35320 -18.98681 329.65862 -18.88075 113.7563  -0.6703 16.9575386021  55.28483    69.185149
 2022-May-22 11:54:00 2459721.995833333 *t  331.50564 -18.10421 331.80853 -17.99594 181.1654  33.7495 22.1884880451  53.53757    69.185144
 2022-May-22 17:08:00 2459722.213888889 *s  333.65175 -16.82291 333.95170 -16.71262 249.3104  -0.9384  3.4361497388  51.65802    69.185140
 2022-May-23 07:12:00 2459722.800000000  r  342.78074 -13.71685 343.07221 -13.59937 106.8376  -0.7093 17.5413293644  44.02289    69.185127
 2022-May-23 12:44:00 2459723.030555556 *t  344.89677 -12.58129 345.18637 -12.46263 181.4643  39.2793 23.0898122710  42.18882    69.185123
 2022-May-23 18:16:00 2459723.261111111 *s  347.00792 -11.15068 347.29556 -11.03103 256.5893  -0.8528  4.6382951429  40.25789    69.185118
 2022-May-24 07:39:00 2459723.818750000  r  355.27036  -7.95736 355.55323  -7.83509  99.4359  -0.7014 18.0582701697  33.35804    69.185106
 2022-May-24 13:29:00 2459724.061805556 *t  357.38866  -6.62260 357.67064  -6.50012 181.3308  45.2449 23.9075743177  31.52739    69.185101
 2022-May-24 19:22:00 2459724.306944444 *s  359.53166  -5.11297 359.81282  -4.99046 264.4068  -0.9679  5.8070153455  29.64396    69.185096
 2022-May-25 08:03:00 2459724.835416667  r    7.13667  -2.02047   7.41656  -1.89901  91.7759  -0.8147 18.5250737499  23.72425    69.185085
 2022-May-25 14:12:00 2459725.091666667 *t    9.32100  -0.53101   9.60113  -0.41029 181.2446  51.3367  0.6919115373  21.98379    69.185079
 2022-May-25 20:25:00 2459725.350694444 *s   11.54704   0.97699  11.82753   1.09679 272.1346  -0.9355  6.9255985278  20.26206    69.185074
 2022-May-26 08:27:00 2459725.852083333  r   18.70625   3.85053  18.98843   3.96628  84.3417  -0.7642 18.9918774267  15.44651    69.185063
 2022-May-26 14:55:00 2459726.121527778 *t   21.01569   5.44349  21.29932   5.55752 181.5559  57.3021  1.4762489559  13.89654    69.185057
 2022-May-26 21:27:00 2459726.393750000 *s   23.38430   6.87350  23.66936   6.98559 279.6529  -0.9303  8.0274697138  12.43195    69.185051
 2022-May-27 08:51:00 2459726.868750000 Ar   30.25231   9.43571  30.54134   9.54119  77.1657  -0.8033 19.4586815484   8.78653    69.185041
 2022-May-27 15:37:00 2459727.150694444 *t   32.74600  11.06898  33.03766  11.17167 181.3372  62.9196  2.2438746070   7.52724    69.185035
 2022-May-27 22:29:00 2459727.436805556 *s   35.32635  12.35326  35.62034  12.45288 286.7409  -0.9762  9.1293415110   6.39203    69.185028
 2022-May-28 09:17:00 2459727.886805556 Nr   42.02187  14.53694  42.32129  14.62770  70.5813  -0.7908 19.9589109359   3.92359    69.185018
 2022-May-28 16:20:00 2459728.180555556 *t   44.75046  16.13631  45.05354  16.22311 180.9465  67.9743  3.0282132797   3.04694    69.185012
 2022-May-28 23:30:00 2459728.479166667 *s   47.58331  17.19663  47.88923  17.27914 292.9278  -0.8231 10.2145017794   2.30765    69.185005
 2022-May-29 09:46:00 2459728.906944444 Nr   54.19656  18.95369  54.50843  19.02536  64.7935  -0.7822 20.5092779743   0.97728    69.184996
 2022-May-29 17:06:00 2459729.212500000 *t   57.20060  20.43612  57.51672  20.50258 181.3018  72.2524  3.8626896194   0.55505    69.184989
 2022-May-30 00:32:00 2459729.522222222 *s   60.31372  21.19525  60.63261  21.25614 298.2736  -0.8726 11.3163751212   0.26001    69.184982
 2022-May-30 10:20:00 2459729.930555556 Cr   66.88745  22.48982  67.21167  22.53829  60.1843  -0.6628 21.1432072152   0.00426    69.184973
 2022-May-30 17:53:00 2459730.245138889 *t   70.15267  23.75361  70.48104  23.79573 180.8328  75.5480  4.7138789397   0.08246    69.184966
 2022-May-31 01:33:00 2459730.564583333 Ns   73.53256  24.14465  73.86283  24.18004 302.3287  -0.9557 12.4015368077   0.26714    69.184958
 2022-May-31 10:58:00 2459730.956944444 *r   80.06983  24.95278  80.40370  24.97474  56.7292  -0.7945 21.8439861981   1.00246    69.184949
 2022-May-31 18:42:00 2459731.279166667 *t   83.55754  25.90837  83.89458  25.92310 180.3490  77.6765  5.5984933416   1.58842    69.184942
 2022-Jun-01 02:30:00 2459731.604166667 As   87.11370  25.88172  87.45099  25.88901 304.6202  -0.8798 13.4198497058   2.26686    69.184934
 2022-Jun-01 11:43:00 2459731.988194444 *r   93.63979  26.19958  93.97816  26.19305  55.0332  -0.8004 22.6617515783   3.91409    69.184925
 2022-Jun-01 19:33:00 2459732.314583333 *t   97.23896  26.76958  97.57876  26.75553 180.7585  78.5082  6.5165325567   4.97572    69.184918
 2022-Jun-02 03:23:00 2459732.640972222  s  100.84741  26.31278 101.18551  26.29119 305.2451  -0.9454 14.3713135271   6.13251    69.184910
 2022-Jun-02 12:35:00 2459733.024305556 *r  107.36793  26.14190 107.70434  26.10686  55.2795  -0.6702 23.5965030697   8.63054    69.184901
 2022-Jun-02 20:23:00 2459733.349305556 *t  110.92392  26.28645 111.25981  26.24432 180.0348  77.9979  7.4178593920  10.09452    69.184894
$$EOE
******************************************************************************************************************************************
